LEMUR-2-MYRA            
1 66787U 25276EC  26204.47154602  .00006140  00000+0  48808-3 0  9990
2 66787  97.5229 274.1722 0018475  28.8062 331.4179 15.00659561 35651
LEMUR-2 FIKRETDENGIZ    
1 67363U 26004A   26204.23432764  .00003712  00000+0  40441-3 0  9990
2 67363  97.8036 202.2466 0009598  32.4337 327.7468 14.88560956 28644
TWILIGHT-1 OBJECT B     
1 67364U 26004B   26201.98878606  .00001110  00000+0  12740-3 0  9990
2 67364  97.8078 200.0319 0009314  28.9865 331.1867 14.87805943 28319
LEMUR-2-MARIO-SOUSA     
1 67365U 26004C   26204.41467763  .00004588  00000+0  49584-3 0  9998
2 67365  97.8008 202.4188 0009196  33.8780 326.3023 14.88777544 28688
LEMUR-2-SONNENBLUME     
1 67367U 26004E   26203.94851722  .00002415  00000+0  26574-3 0  9990
2 67367  97.8005 201.9290 0008904  35.7911 324.3902 14.88482895 28617
LEMUR-2-WOBLER          
1 67368U 26004F   26204.40699569  .00004076  00000+0  44153-3 0  9990
2 67368  97.8058 202.5398 0008811  26.3810 333.7854 14.88741264 28688
LEMUR-2-GRAM-E-SUE      
1 67370U 26004H   26204.46697805  .00002185  00000+0  24027-3 0  9997
2 67370  97.7995 202.4565 0008085  37.9278 322.2507 14.88618341 28692
LEMUR-2-KATIE           
1 67387U 26004AA  26203.94468344  .00004891  00000+0  50902-3 0  9998
2 67387  97.8053 202.5193 0002772  14.1370 345.9925 14.90299200 28633
LEMUR-2-HCS-BAZUS       
1 67388U 26004AB  26204.48013073  .00003865  00000+0  40341-3 0  9990
2 67388  97.8041 203.0256 0002214  14.5071 345.6209 14.90305691 28713
