{"fetched_at":"2026-07-24T07:06:13.624Z","source":"https://celestrak.org/NORAD/elements/gp.php?GROUP=spire&FORMAT=JSON","constellation":"spire","records":[{"OBJECT_NAME":"LEMUR-2-MYRA","OBJECT_ID":"2025-276EC","EPOCH":"2026-07-23T11:19:01.576128","CLASSIFICATION_TYPE":"U","MEAN_MOTION":15.00659561,"ECCENTRICITY":0.0018475,"INCLINATION":97.5229,"RA_OF_ASC_NODE":274.1722,"ARG_OF_PERICENTER":28.8062,"MEAN_ANOMALY":331.4179,"EPHEMERIS_TYPE":0,"NORAD_CAT_ID":66787,"ELEMENT_SET_NO":999,"REV_AT_EPOCH":3565,"BSTAR":0.00048808,"MEAN_MOTION_DOT":0.0000614,"MEAN_MOTION_DDOT":0},{"OBJECT_NAME":"LEMUR-2 FIKRETDENGIZ","OBJECT_ID":"2026-004A","EPOCH":"2026-07-23T05:37:25.908096","CLASSIFICATION_TYPE":"U","MEAN_MOTION":14.88560956,"ECCENTRICITY":0.00095988,"INCLINATION":97.8036,"RA_OF_ASC_NODE":202.2466,"ARG_OF_PERICENTER":32.4337,"MEAN_ANOMALY":327.7468,"EPHEMERIS_TYPE":0,"NORAD_CAT_ID":67363,"ELEMENT_SET_NO":999,"REV_AT_EPOCH":2864,"BSTAR":0.00040440968,"MEAN_MOTION_DOT":0.00003712,"MEAN_MOTION_DDOT":0},{"OBJECT_NAME":"TWILIGHT-1 OBJECT B","OBJECT_ID":"2026-004B","EPOCH":"2026-07-20T23:43:51.115584","CLASSIFICATION_TYPE":"U","MEAN_MOTION":14.87805943,"ECCENTRICITY":0.00093149,"INCLINATION":97.8078,"RA_OF_ASC_NODE":200.0319,"ARG_OF_PERICENTER":28.9865,"MEAN_ANOMALY":331.1867,"EPHEMERIS_TYPE":0,"NORAD_CAT_ID":67364,"ELEMENT_SET_NO":999,"REV_AT_EPOCH":2831,"BSTAR":0.00012739587,"MEAN_MOTION_DOT":0.0000111,"MEAN_MOTION_DDOT":0},{"OBJECT_NAME":"LEMUR-2-MARIO-SOUSA","OBJECT_ID":"2026-004C","EPOCH":"2026-07-23T09:57:08.147232","CLASSIFICATION_TYPE":"U","MEAN_MOTION":14.88777544,"ECCENTRICITY":0.0009196,"INCLINATION":97.8008,"RA_OF_ASC_NODE":202.4188,"ARG_OF_PERICENTER":33.878,"MEAN_ANOMALY":326.3023,"EPHEMERIS_TYPE":0,"NORAD_CAT_ID":67365,"ELEMENT_SET_NO":999,"REV_AT_EPOCH":2868,"BSTAR":0.00049584016,"MEAN_MOTION_DOT":0.00004588,"MEAN_MOTION_DDOT":0},{"OBJECT_NAME":"LEMUR-2-SONNENBLUME","OBJECT_ID":"2026-004E","EPOCH":"2026-07-22T22:45:51.887808","CLASSIFICATION_TYPE":"U","MEAN_MOTION":14.88482895,"ECCENTRICITY":0.00089045,"INCLINATION":97.8005,"RA_OF_ASC_NODE":201.929,"ARG_OF_PERICENTER":35.7911,"MEAN_ANOMALY":324.3902,"EPHEMERIS_TYPE":0,"NORAD_CAT_ID":67367,"ELEMENT_SET_NO":999,"REV_AT_EPOCH":2861,"BSTAR":0.00026574293,"MEAN_MOTION_DOT":0.00002415,"MEAN_MOTION_DDOT":0},{"OBJECT_NAME":"LEMUR-2-WOBLER","OBJECT_ID":"2026-004F","EPOCH":"2026-07-23T09:46:04.427616","CLASSIFICATION_TYPE":"U","MEAN_MOTION":14.88741264,"ECCENTRICITY":0.00088112,"INCLINATION":97.8058,"RA_OF_ASC_NODE":202.5398,"ARG_OF_PERICENTER":26.381,"MEAN_ANOMALY":333.7854,"EPHEMERIS_TYPE":0,"NORAD_CAT_ID":67368,"ELEMENT_SET_NO":999,"REV_AT_EPOCH":2868,"BSTAR":0.00044153334,"MEAN_MOTION_DOT":0.00004076,"MEAN_MOTION_DDOT":0},{"OBJECT_NAME":"LEMUR-2-GRAM-E-SUE","OBJECT_ID":"2026-004H","EPOCH":"2026-07-23T11:12:26.903520","CLASSIFICATION_TYPE":"U","MEAN_MOTION":14.88618341,"ECCENTRICITY":0.00080857,"INCLINATION":97.7995,"RA_OF_ASC_NODE":202.4565,"ARG_OF_PERICENTER":37.9278,"MEAN_ANOMALY":322.2507,"EPHEMERIS_TYPE":0,"NORAD_CAT_ID":67370,"ELEMENT_SET_NO":999,"REV_AT_EPOCH":2869,"BSTAR":0.00024026858,"MEAN_MOTION_DOT":0.00002185,"MEAN_MOTION_DDOT":0},{"OBJECT_NAME":"LEMUR-2-KATIE","OBJECT_ID":"2026-004AA","EPOCH":"2026-07-22T22:40:20.649216","CLASSIFICATION_TYPE":"U","MEAN_MOTION":14.902992,"ECCENTRICITY":0.00027726,"INCLINATION":97.8053,"RA_OF_ASC_NODE":202.5193,"ARG_OF_PERICENTER":14.137,"MEAN_ANOMALY":345.9925,"EPHEMERIS_TYPE":0,"NORAD_CAT_ID":67387,"ELEMENT_SET_NO":999,"REV_AT_EPOCH":2863,"BSTAR":0.0005090192,"MEAN_MOTION_DOT":0.00004891,"MEAN_MOTION_DDOT":0},{"OBJECT_NAME":"LEMUR-2-HCS-BAZUS","OBJECT_ID":"2026-004AB","EPOCH":"2026-07-23T11:31:23.295072","CLASSIFICATION_TYPE":"U","MEAN_MOTION":14.90305691,"ECCENTRICITY":0.0002214,"INCLINATION":97.8041,"RA_OF_ASC_NODE":203.0256,"ARG_OF_PERICENTER":14.5071,"MEAN_ANOMALY":345.6209,"EPHEMERIS_TYPE":0,"NORAD_CAT_ID":67388,"ELEMENT_SET_NO":999,"REV_AT_EPOCH":2871,"BSTAR":0.00040341,"MEAN_MOTION_DOT":0.00003865,"MEAN_MOTION_DDOT":0}]}
